TRANSPORTER-10 OBJECT AG
1 59128U 24043AG  26068.92552531  .00009498  00000+0  32170-3 0  9997
2 59128  97.5471 205.7101 0009300 226.5958 133.4509 15.30759727111920
STARLINK-34645          
1 64766U 25147M   26068.73392281  .00037155  00000+0  12598-2 0  9992
2 64766  53.1608 242.8920 0000783 102.8545 257.2543 15.30214596 38751
